CCSDS_OMM_VERS = 2.0
CREATION_DATE  = 
ORIGINATOR     = 

OBJECT_NAME    = UNKNOWN
OBJECT_ID      = 2025-271AE
CENTER_NAME    = EARTH
REF_FRAME      = TEME
TIME_SYSTEM    = UTC
MEAN_ELEMENT_THEORY = SGP/SGP4

EPOCH          = 2025-12-02T16:00:03.000096
MEAN_MOTION    = 15.87051116
ECCENTRICITY   = .0000717
INCLINATION    = 53.1571
RA_OF_ASC_NODE = 236.7807
ARG_OF_PERICENTER = 110.7411
MEAN_ANOMALY   = 313.9012

EPHEMERIS_TYPE = 0
CLASSIFICATION_TYPE = U
NORAD_CAT_ID   = 66551
ELEMENT_SET_NO = 999
REV_AT_EPOCH   = 262
BSTAR          = -.74303E-2
MEAN_MOTION_DOT = -.1709685E-1
MEAN_MOTION_DDOT = 0

CCSDS_OMM_VERS = 2.0
CREATION_DATE  = 
ORIGINATOR     = 

OBJECT_NAME    = GLOBAL-33
OBJECT_ID      = 2025-267A
CENTER_NAME    = EARTH
REF_FRAME      = TEME
TIME_SYSTEM    = UTC
MEAN_ELEMENT_THEORY = SGP/SGP4

EPOCH          = 2025-12-06T08:06:37.660896
MEAN_MOTION    = 15.31413788
ECCENTRICITY   = .00050375
INCLINATION    = 42.0196
RA_OF_ASC_NODE = 93.9453
ARG_OF_PERICENTER = 6.8015
MEAN_ANOMALY   = 353.2890

EPHEMERIS_TYPE = 0
CLASSIFICATION_TYPE = U
NORAD_CAT_ID   = 66554
ELEMENT_SET_NO = 999
REV_AT_EPOCH   = 242
BSTAR          = .71627239E-3
MEAN_MOTION_DOT = .22021E-3
MEAN_MOTION_DDOT = 0

CCSDS_OMM_VERS = 2.0
CREATION_DATE  = 
ORIGINATOR     = 

OBJECT_NAME    = ELECTRON KICK STAGE R/B
OBJECT_ID      = 2025-267B
CENTER_NAME    = EARTH
REF_FRAME      = TEME
TIME_SYSTEM    = UTC
MEAN_ELEMENT_THEORY = SGP/SGP4

EPOCH          = 2025-12-06T07:55:54.267744
MEAN_MOTION    = 15.32356018
ECCENTRICITY   = .00070291
INCLINATION    = 42.0182
RA_OF_ASC_NODE = 93.8895
ARG_OF_PERICENTER = 5.8209
MEAN_ANOMALY   = 354.2709

EPHEMERIS_TYPE = 0
CLASSIFICATION_TYPE = U
NORAD_CAT_ID   = 66555
ELEMENT_SET_NO = 999
REV_AT_EPOCH   = 242
BSTAR          = .11904437E-2
MEAN_MOTION_DOT = .37968E-3
MEAN_MOTION_DDOT = 0

CCSDS_OMM_VERS = 2.0
CREATION_DATE  = 
ORIGINATOR     = 

OBJECT_NAME    = STARLINK-35699
OBJECT_ID      = 2025-268A
CENTER_NAME    = EARTH
REF_FRAME      = TEME
TIME_SYSTEM    = UTC
MEAN_ELEMENT_THEORY = SGP/SGP4

EPOCH          = 2025-12-06T06:00:02.000160
MEAN_MOTION    = 15.63558941
ECCENTRICITY   = .00015305
INCLINATION    = 43.0000
RA_OF_ASC_NODE = 159.3193
ARG_OF_PERICENTER = 271.9332
MEAN_ANOMALY   = 207.9721

EPHEMERIS_TYPE = 0
CLASSIFICATION_TYPE = U
NORAD_CAT_ID   = 66557
ELEMENT_SET_NO = 999
REV_AT_EPOCH   = 362
BSTAR          = -.24098923E-1
MEAN_MOTION_DOT = -.2018535E-1
MEAN_MOTION_DDOT = 0

CCSDS_OMM_VERS = 2.0
CREATION_DATE  = 
ORIGINATOR     = 

OBJECT_NAME    = STARLINK-35695
OBJECT_ID      = 2025-268B
CENTER_NAME    = EARTH
REF_FRAME      = TEME
TIME_SYSTEM    = UTC
MEAN_ELEMENT_THEORY = SGP/SGP4

EPOCH          = 2025-12-06T06:00:02.000160
MEAN_MOTION    = 15.63516547
ECCENTRICITY   = .0001558
INCLINATION    = 42.9996
RA_OF_ASC_NODE = 159.3145
ARG_OF_PERICENTER = 280.5686
MEAN_ANOMALY   = 201.2842

EPHEMERIS_TYPE = 0
CLASSIFICATION_TYPE = U
NORAD_CAT_ID   = 66558
ELEMENT_SET_NO = 999
REV_AT_EPOCH   = 362
BSTAR          = -.23540333E-1
MEAN_MOTION_DOT = -.1974507E-1
MEAN_MOTION_DDOT = 0

CCSDS_OMM_VERS = 2.0
CREATION_DATE  = 
ORIGINATOR     = 

OBJECT_NAME    = STARLINK-35419
OBJECT_ID      = 2025-268C
CENTER_NAME    = EARTH
REF_FRAME      = TEME
TIME_SYSTEM    = UTC
MEAN_ELEMENT_THEORY = SGP/SGP4

EPOCH          = 2025-12-06T06:00:02.000160
MEAN_MOTION    = 15.63560096
ECCENTRICITY   = .00016228
INCLINATION    = 42.9995
RA_OF_ASC_NODE = 159.3105
ARG_OF_PERICENTER = 271.4361
MEAN_ANOMALY   = 212.3006

EPHEMERIS_TYPE = 0
CLASSIFICATION_TYPE = U
NORAD_CAT_ID   = 66559
ELEMENT_SET_NO = 999
REV_AT_EPOCH   = 362
BSTAR          = -.24099284E-1
MEAN_MOTION_DOT = -.2018717E-1
MEAN_MOTION_DDOT = 0

CCSDS_OMM_VERS = 2.0
CREATION_DATE  = 
ORIGINATOR     = 

OBJECT_NAME    = STARLINK-35411
OBJECT_ID      = 2025-268D
CENTER_NAME    = EARTH
REF_FRAME      = TEME
TIME_SYSTEM    = UTC
MEAN_ELEMENT_THEORY = SGP/SGP4

EPOCH          = 2025-12-06T06:00:02.000160
MEAN_MOTION    = 15.63561323
ECCENTRICITY   = .00015516
INCLINATION    = 42.9995
RA_OF_ASC_NODE = 159.3057
ARG_OF_PERICENTER = 272.5637
MEAN_ANOMALY   = 213.0918

EPHEMERIS_TYPE = 0
CLASSIFICATION_TYPE = U
NORAD_CAT_ID   = 66560
ELEMENT_SET_NO = 999
REV_AT_EPOCH   = 362
BSTAR          = -.2414236E-1
MEAN_MOTION_DOT = -.2021907E-1
MEAN_MOTION_DDOT = 0

CCSDS_OMM_VERS = 2.0
CREATION_DATE  = 
ORIGINATOR     = 

OBJECT_NAME    = STARLINK-35305
OBJECT_ID      = 2025-268E
CENTER_NAME    = EARTH
REF_FRAME      = TEME
TIME_SYSTEM    = UTC
MEAN_ELEMENT_THEORY = SGP/SGP4

EPOCH          = 2025-12-06T06:00:02.000160
MEAN_MOTION    = 15.63538079
ECCENTRICITY   = .00015708
INCLINATION    = 42.9996
RA_OF_ASC_NODE = 159.2959
ARG_OF_PERICENTER = 271.7708
MEAN_ANOMALY   = 217.7345

EPHEMERIS_TYPE = 0
CLASSIFICATION_TYPE = U
NORAD_CAT_ID   = 66561
ELEMENT_SET_NO = 999
REV_AT_EPOCH   = 357
BSTAR          = -.23821833E-1
MEAN_MOTION_DOT = -.1996747E-1
MEAN_MOTION_DDOT = 0

CCSDS_OMM_VERS = 2.0
CREATION_DATE  = 
ORIGINATOR     = 

OBJECT_NAME    = STARLINK-35579
OBJECT_ID      = 2025-268F
CENTER_NAME    = EARTH
REF_FRAME      = TEME
TIME_SYSTEM    = UTC
MEAN_ELEMENT_THEORY = SGP/SGP4

EPOCH          = 2025-12-06T06:00:02.000160
MEAN_MOTION    = 15.63560538
ECCENTRICITY   = .00015006
INCLINATION    = 42.9994
RA_OF_ASC_NODE = 159.3002
ARG_OF_PERICENTER = 271.9324
MEAN_ANOMALY   = 215.6410

EPHEMERIS_TYPE = 0
CLASSIFICATION_TYPE = U
NORAD_CAT_ID   = 66562
ELEMENT_SET_NO = 999
REV_AT_EPOCH   = 362
BSTAR          = -.24130747E-1
MEAN_MOTION_DOT = -.202096E-1
MEAN_MOTION_DDOT = 0

CCSDS_OMM_VERS = 2.0
CREATION_DATE  = 
ORIGINATOR     = 

OBJECT_NAME    = STARLINK-35437
OBJECT_ID      = 2025-268G
CENTER_NAME    = EARTH
REF_FRAME      = TEME
TIME_SYSTEM    = UTC
MEAN_ELEMENT_THEORY = SGP/SGP4

EPOCH          = 2025-12-06T06:00:02.000160
MEAN_MOTION    = 15.63560474
ECCENTRICITY   = .00014988
INCLINATION    = 42.9995
RA_OF_ASC_NODE = 159.2909
ARG_OF_PERICENTER = 271.7108
MEAN_ANOMALY   = 219.6959

EPHEMERIS_TYPE = 0
CLASSIFICATION_TYPE = U
NORAD_CAT_ID   = 66563
ELEMENT_SET_NO = 999
REV_AT_EPOCH   = 362
BSTAR          = -.24120162E-1
MEAN_MOTION_DOT = -.2020177E-1
MEAN_MOTION_DDOT = 0

CCSDS_OMM_VERS = 2.0
CREATION_DATE  = 
ORIGINATOR     = 

OBJECT_NAME    = STARLINK-35358
OBJECT_ID      = 2025-268H
CENTER_NAME    = EARTH
REF_FRAME      = TEME
TIME_SYSTEM    = UTC
MEAN_ELEMENT_THEORY = SGP/SGP4

EPOCH          = 2025-12-06T06:00:02.000160
MEAN_MOTION    = 15.63561071
ECCENTRICITY   = .00015144
INCLINATION    = 42.9994
RA_OF_ASC_NODE = 159.2862
ARG_OF_PERICENTER = 271.7011
MEAN_ANOMALY   = 221.6205

EPHEMERIS_TYPE = 0
CLASSIFICATION_TYPE = U
NORAD_CAT_ID   = 66564
ELEMENT_SET_NO = 999
REV_AT_EPOCH   = 357
BSTAR          = -.24105959E-1
MEAN_MOTION_DOT = -.201919E-1
MEAN_MOTION_DDOT = 0

CCSDS_OMM_VERS = 2.0
CREATION_DATE  = 
ORIGINATOR     = 

OBJECT_NAME    = STARLINK-35893
OBJECT_ID      = 2025-268J
CENTER_NAME    = EARTH
REF_FRAME      = TEME
TIME_SYSTEM    = UTC
MEAN_ELEMENT_THEORY = SGP/SGP4

EPOCH          = 2025-12-06T06:00:02.000160
MEAN_MOTION    = 15.63559019
ECCENTRICITY   = .00015818
INCLINATION    = 42.9996
RA_OF_ASC_NODE = 159.2810
ARG_OF_PERICENTER = 271.0363
MEAN_ANOMALY   = 224.2031

EPHEMERIS_TYPE = 0
CLASSIFICATION_TYPE = U
NORAD_CAT_ID   = 66565
ELEMENT_SET_NO = 999
REV_AT_EPOCH   = 362
BSTAR          = -.2407953E-1
MEAN_MOTION_DOT = -.2017159E-1
MEAN_MOTION_DDOT = 0

