UNKNOWN                 
1 66551U 25271AE  25336.66670139 -.01709685  00000+0 -74303-2 0  9993
2 66551  53.1571 236.7807 0000717 110.7411 313.9012 15.87051116  2624
GLOBAL-33               
1 66554U 25267A   25340.33793589  .00022021  00000+0  71627-3 0  9991
2 66554  42.0196  93.9453 0005037   6.8015 353.2890 15.31413788  2427
ELECTRON KICK STAGE R/B 
1 66555U 25267B   25340.33048921  .00037968  00000+0  11904-2 0  9992
2 66555  42.0182  93.8895 0007029   5.8209 354.2709 15.32356018  2422
STARLINK-35699          
1 66557U 25268A   25340.25002315 -.02018535  00000+0 -24099-1 0  9994
2 66557  43.0000 159.3193 0001530 271.9332 207.9721 15.63558941  3621
STARLINK-35695          
1 66558U 25268B   25340.25002315 -.01974507  00000+0 -23540-1 0  9994
2 66558  42.9996 159.3145 0001558 280.5686 201.2842 15.63516547  3626
STARLINK-35419          
1 66559U 25268C   25340.25002315 -.02018717  00000+0 -24099-1 0  9998
2 66559  42.9995 159.3105 0001622 271.4361 212.3006 15.63560096  3626
STARLINK-35411          
1 66560U 25268D   25340.25002315 -.02021907  00000+0 -24142-1 0  9994
2 66560  42.9995 159.3057 0001551 272.5637 213.0918 15.63561323  3627
STARLINK-35305          
1 66561U 25268E   25340.25002315 -.01996747  00000+0 -23822-1 0  9991
2 66561  42.9996 159.2959 0001570 271.7708 217.7345 15.63538079  3571
STARLINK-35579          
1 66562U 25268F   25340.25002315 -.02020960  00000+0 -24131-1 0  9992
2 66562  42.9994 159.3002 0001500 271.9324 215.6410 15.63560538  3620
STARLINK-35437          
1 66563U 25268G   25340.25002315 -.02020177  00000+0 -24120-1 0  9991
2 66563  42.9995 159.2909 0001498 271.7108 219.6959 15.63560474  3622
STARLINK-35358          
1 66564U 25268H   25340.25002315 -.02019190  00000+0 -24106-1 0  9999
2 66564  42.9994 159.2862 0001514 271.7011 221.6205 15.63561071  3577
STARLINK-35893          
1 66565U 25268J   25340.25002315 -.02017159  00000+0 -24080-1 0  9994
2 66565  42.9996 159.2810 0001581 271.0363 224.2031 15.63559019  3621
